{
  "type": "FeatureCollection",
  "features": [
    {
      "type": "Feature",
      "properties": {
        "norad_id": 31825,
        "name": "FENGYUN 1C DEB",
        "group": "fengyun-1c-debris",
        "lat": -18.4625786068651,
        "lon": 163.85030595395546,
        "alt_km": 913.3263284420555,
        "timestamp": "2025-12-13T03:42:11.557379+00:00",
        "meta_object_name": "FENGYUN 1C DEB",
        "meta_object_id": "1999-025CHP",
        "meta_epoch": "2025-12-12T04:48:15.418944",
        "meta_mean_motion": 14.21643578,
        "meta_eccentricity": 0.01655696,
        "meta_inclination": 98.5904,
        "meta_ra_of_asc_node": 345.814,
        "meta_arg_of_pericenter": 339.9495,
        "meta_mean_anomaly": 19.5227,
        "meta_ephemeris_type": 0,
        "meta_classification_type": "U",
        "meta_norad_cat_id": 31825,
        "meta_element_set_no": 999,
        "meta_rev_at_epoch": 95614,
        "meta_bstar": 0.0011210457,
        "meta_mean_motion_dot": 2.784e-05,
        "meta_mean_motion_ddot": 0,
        "tle_line1": "1 31825U 99025CHP 25346.20017846  .00002784  00000+0  11210-2 0  9999",
        "tle_line2": "2 31825  98.5904 345.8140 0165569 339.9495  19.5227 14.21643578956147"
      },
      "geometry": {
        "type": "Point",
        "coordinates": [
          163.85030595395546,
          -18.4625786068651
        ]
      }
    },
    {
      "type": "Feature",
      "properties": {
        "norad_id": 31826,
        "name": "FENGYUN 1C DEB",
        "group": "fengyun-1c-debris",
        "lat": 58.377050575846205,
        "lon": -36.001232415986365,
        "alt_km": 877.185378344333,
        "timestamp": "2025-12-13T03:42:11.557389+00:00",
        "meta_object_name": "FENGYUN 1C DEB",
        "meta_object_id": "1999-025CHQ",
        "meta_epoch": "2025-12-11T11:33:00.652320",
        "meta_mean_motion": 14.19272216,
        "meta_eccentricity": 0.01238896,
        "meta_inclination": 98.6262,
        "meta_ra_of_asc_node": 336.6416,
        "meta_arg_of_pericenter": 192.9591,
        "meta_mean_anomaly": 324.2726,
        "meta_ephemeris_type": 0,
        "meta_classification_type": "U",
        "meta_norad_cat_id": 31826,
        "meta_element_set_no": 999,
        "meta_rev_at_epoch": 95796,
        "meta_bstar": 0.00055045899,
        "meta_mean_motion_dot": 1.204e-05,
        "meta_mean_motion_ddot": 0,
        "tle_line1": "1 31826U 99025CHQ 25345.48125755  .00001204  00000+0  55046-3 0  9990",
        "tle_line2": "2 31826  98.6262 336.6416 0123889 192.9591 324.2726 14.19272216957968"
      },
      "geometry": {
        "type": "Point",
        "coordinates": [
          -36.001232415986365,
          58.377050575846205
        ]
      }
    },
    {
      "type": "Feature",
      "properties": {
        "norad_id": 31829,
        "name": "FENGYUN 1C DEB",
        "group": "fengyun-1c-debris",
        "lat": -25.349001333365162,
        "lon": -27.264502298219103,
        "alt_km": 846.3011916047399,
        "timestamp": "2025-12-13T03:42:11.557399+00:00",
        "meta_object_name": "FENGYUN 1C DEB",
        "meta_object_id": "1999-025CHT",
        "meta_epoch": "2025-12-10T17:46:33.788640",
        "meta_mean_motion": 13.88679676,
        "meta_eccentricity": 0.01690998,
        "meta_inclination": 98.8354,
        "meta_ra_of_asc_node": 154.6728,
        "meta_arg_of_pericenter": 169.8915,
        "meta_mean_anomaly": 214.6031,
        "meta_ephemeris_type": 0,
        "meta_classification_type": "U",
        "meta_norad_cat_id": 31829,
        "meta_element_set_no": 999,
        "meta_rev_at_epoch": 94120,
        "meta_bstar": 0.00069465665,
        "meta_mean_motion_dot": 8.98e-06,
        "meta_mean_motion_ddot": 0,
        "tle_line1": "1 31829U 99025CHT 25344.74066885  .00000898  00000+0  69466-3 0  9998",
        "tle_line2": "2 31829  98.8354 154.6728 0169099 169.8915 214.6031 13.88679676941202"
      },
      "geometry": {
        "type": "Point",
        "coordinates": [
          -27.264502298219103,
          -25.349001333365162
        ]
      }
    },
    {
      "type": "Feature",
      "properties": {
        "norad_id": 31830,
        "name": "FENGYUN 1C DEB",
        "group": "fengyun-1c-debris",
        "lat": -22.6428005822268,
        "lon": -91.02963044936868,
        "alt_km": 1001.8511384514695,
        "timestamp": "2025-12-13T03:42:11.557410+00:00",
        "meta_object_name": "FENGYUN 1C DEB",
        "meta_object_id": "1999-025CHU",
        "meta_epoch": "2025-12-12T06:01:13.985184",
        "meta_mean_motion": 13.83416387,
        "meta_eccentricity": 0.01821126,
        "meta_inclination": 99.1636,
        "meta_ra_of_asc_node": 91.9507,
        "meta_arg_of_pericenter": 315.8407,
        "meta_mean_anomaly": 71.95,
        "meta_ephemeris_type": 0,
        "meta_classification_type": "U",
        "meta_norad_cat_id": 31830,
        "meta_element_set_no": 999,
        "meta_rev_at_epoch": 92733,
        "meta_bstar": 0.002565348,
        "meta_mean_motion_dot": 3.164e-05,
        "meta_mean_motion_ddot": 0,
        "tle_line1": "1 31830U 99025CHU 25346.25085631  .00003164  00000+0  25653-2 0  9996",
        "tle_line2": "2 31830  99.1636  91.9507 0182112 315.8407  71.9500 13.83416387927335"
      },
      "geometry": {
        "type": "Point",
        "coordinates": [
          -91.02963044936868,
          -22.6428005822268
        ]
      }
    },
    {
      "type": "Feature",
      "properties": {
        "norad_id": 31834,
        "name": "FENGYUN 1C DEB",
        "group": "fengyun-1c-debris",
        "lat": 19.45970385745845,
        "lon": -155.659608184539,
        "alt_km": 816.5002909182458,
        "timestamp": "2025-12-13T03:42:11.557423+00:00",
        "meta_object_name": "FENGYUN 1C DEB",
        "meta_object_id": "1999-025CHY",
        "meta_epoch": "2025-12-09T20:53:13.363584",
        "meta_mean_motion": 14.03149473,
        "meta_eccentricity": 0.01627896,
        "meta_inclination": 98.3687,
        "meta_ra_of_asc_node": 204.2994,
        "meta_arg_of_pericenter": 85.6379,
        "meta_mean_anomaly": 276.3369,
        "meta_ephemeris_type": 0,
        "meta_classification_type": "U",
        "meta_norad_cat_id": 31834,
        "meta_element_set_no": 999,
        "meta_rev_at_epoch": 63670,
        "meta_bstar": 0.0003269866,
        "meta_mean_motion_dot": 5.35e-06,
        "meta_mean_motion_ddot": 0,
        "tle_line1": "1 31834U 99025CHY 25343.87029356  .00000535  00000+0  32699-3 0  9995",
        "tle_line2": "2 31834  98.3687 204.2994 0162789  85.6379 276.3369 14.03149473636707"
      },
      "geometry": {
        "type": "Point",
        "coordinates": [
          -155.659608184539,
          19.45970385745845
        ]
      }
    },
    {
      "type": "Feature",
      "properties": {
        "norad_id": 31837,
        "name": "FENGYUN 1C DEB",
        "group": "fengyun-1c-debris",
        "lat": 45.10825507582825,
        "lon": 54.48010330935904,
        "alt_km": 560.9794366722172,
        "timestamp": "2025-12-13T03:42:11.557434+00:00",
        "meta_object_name": "FENGYUN 1C DEB",
        "meta_object_id": "1999-025CJB",
        "meta_epoch": "2025-12-11T10:59:52.654848",
        "meta_mean_motion": 14.8220749,
        "meta_eccentricity": 0.0093842,
        "meta_inclination": 98.1006,
        "meta_ra_of_asc_node": 60.983,
        "meta_arg_of_pericenter": 21.8431,
        "meta_mean_anomaly": 338.6741,
        "meta_ephemeris_type": 0,
        "meta_classification_type": "U",
        "meta_norad_cat_id": 31837,
        "meta_element_set_no": 999,
        "meta_rev_at_epoch": 98340,
        "meta_bstar": 0.0019985815,
        "meta_mean_motion_dot": 0.00017182,
        "meta_mean_motion_ddot": 0,
        "tle_line1": "1 31837U 99025CJB 25345.45824832  .00017182  00000+0  19986-2 0  9995",
        "tle_line2": "2 31837  98.1006  60.9830 0093842  21.8431 338.6741 14.82207490983402"
      },
      "geometry": {
        "type": "Point",
        "coordinates": [
          54.48010330935904,
          45.10825507582825
        ]
      }
    },
    {
      "type": "Feature",
      "properties": {
        "norad_id": 31838,
        "name": "FENGYUN 1C DEB",
        "group": "fengyun-1c-debris",
        "lat": -18.915458322459177,
        "lon": -145.1729095950121,
        "alt_km": 833.5336655460897,
        "timestamp": "2025-12-13T03:42:11.557444+00:00",
        "meta_object_name": "FENGYUN 1C DEB",
        "meta_object_id": "1999-025CJC",
        "meta_epoch": "2025-12-11T08:48:04.078368",
        "meta_mean_motion": 14.21128577,
        "meta_eccentricity": 0.00386433,
        "meta_inclination": 98.718,
        "meta_ra_of_asc_node": 36.0771,
        "meta_arg_of_pericenter": 99.3908,
        "meta_mean_anomaly": 318.9348,
        "meta_ephemeris_type": 0,
        "meta_classification_type": "U",
        "meta_norad_cat_id": 31838,
        "meta_element_set_no": 999,
        "meta_rev_at_epoch": 64557,
        "meta_bstar": 0.0011422603,
        "meta_mean_motion_dot": 2.458e-05,
        "meta_mean_motion_ddot": 0,
        "tle_line1": "1 31838U 99025CJC 25345.36671387  .00002458  00000+0  11423-2 0  9999",
        "tle_line2": "2 31838  98.7180  36.0771 0038643  99.3908 318.9348 14.21128577645575"
      },
      "geometry": {
        "type": "Point",
        "coordinates": [
          -145.1729095950121,
          -18.915458322459177
        ]
      }
    }
  ]
}